<?xml version="1.0" encoding="UTF-8"?>
<ndm xmlns:xsi="http://www.w3.org/2001/XMLSchema-instance" xsi:noNamespaceSchemaLocation="https://sanaregistry.org/r/ndmxml_unqualified/ndmxml-2.0.0-master-2.0.xsd">
<omm id="CCSDS_OMM_VERS" version="2.0">
<header><CREATION_DATE/><ORIGINATOR/></header><body><segment><metadata><OBJECT_NAME>ONEWEB-0461</OBJECT_NAME><OBJECT_ID>2022-012AD</OBJECT_ID><CENTER_NAME>EARTH</CENTER_NAME><REF_FRAME>TEME</REF_FRAME><TIME_SYSTEM>UTC</TIME_SYSTEM><MEAN_ELEMENT_THEORY>SGP4</MEAN_ELEMENT_THEORY></metadata><data><meanElements><EPOCH>2025-11-22T07:16:21.112032</EPOCH><MEAN_MOTION>13.17647338</MEAN_MOTION><ECCENTRICITY>.0001668</ECCENTRICITY><INCLINATION>87.9141</INCLINATION><RA_OF_ASC_NODE>46.9832</RA_OF_ASC_NODE><ARG_OF_PERICENTER>98.9347</ARG_OF_PERICENTER><MEAN_ANOMALY>261.1973</MEAN_ANOMALY></meanElements><tleParameters><EPHEMERIS_TYPE>0</EPHEMERIS_TYPE><CLASSIFICATION_TYPE>U</CLASSIFICATION_TYPE><NORAD_CAT_ID>51649</NORAD_CAT_ID><ELEMENT_SET_NO>999</ELEMENT_SET_NO><REV_AT_EPOCH>18664</REV_AT_EPOCH><BSTAR>.90844E-4</BSTAR><MEAN_MOTION_DOT>.48E-6</MEAN_MOTION_DOT><MEAN_MOTION_DDOT>0</MEAN_MOTION_DDOT></tleParameters></data></segment></body></omm>
<omm id="CCSDS_OMM_VERS" version="2.0">
<header><CREATION_DATE/><ORIGINATOR/></header><body><segment><metadata><OBJECT_NAME>ONEWEB-0463</OBJECT_NAME><OBJECT_ID>2022-012AE</OBJECT_ID><CENTER_NAME>EARTH</CENTER_NAME><REF_FRAME>TEME</REF_FRAME><TIME_SYSTEM>UTC</TIME_SYSTEM><MEAN_ELEMENT_THEORY>SGP4</MEAN_ELEMENT_THEORY></metadata><data><meanElements><EPOCH>2025-11-22T05:00:15.463584</EPOCH><MEAN_MOTION>13.17647386</MEAN_MOTION><ECCENTRICITY>.0001802</ECCENTRICITY><INCLINATION>87.9113</INCLINATION><RA_OF_ASC_NODE>47.0493</RA_OF_ASC_NODE><ARG_OF_PERICENTER>104.0498</ARG_OF_PERICENTER><MEAN_ANOMALY>256.0834</MEAN_ANOMALY></meanElements><tleParameters><EPHEMERIS_TYPE>0</EPHEMERIS_TYPE><CLASSIFICATION_TYPE>U</CLASSIFICATION_TYPE><NORAD_CAT_ID>51650</NORAD_CAT_ID><ELEMENT_SET_NO>999</ELEMENT_SET_NO><REV_AT_EPOCH>18641</REV_AT_EPOCH><BSTAR>.36351E-4</BSTAR><MEAN_MOTION_DOT>.27E-6</MEAN_MOTION_DOT><MEAN_MOTION_DDOT>0</MEAN_MOTION_DDOT></tleParameters></data></segment></body></omm>
<omm id="CCSDS_OMM_VERS" version="2.0">
<header><CREATION_DATE/><ORIGINATOR/></header><body><segment><metadata><OBJECT_NAME>ONEWEB-0464</OBJECT_NAME><OBJECT_ID>2022-012AF</OBJECT_ID><CENTER_NAME>EARTH</CENTER_NAME><REF_FRAME>TEME</REF_FRAME><TIME_SYSTEM>UTC</TIME_SYSTEM><MEAN_ELEMENT_THEORY>SGP4</MEAN_ELEMENT_THEORY></metadata><data><meanElements><EPOCH>2025-11-22T07:59:44.503008</EPOCH><MEAN_MOTION>13.10370140</MEAN_MOTION><ECCENTRICITY>.0001905</ECCENTRICITY><INCLINATION>87.8807</INCLINATION><RA_OF_ASC_NODE>77.5231</RA_OF_ASC_NODE><ARG_OF_PERICENTER>102.1859</ARG_OF_PERICENTER><MEAN_ANOMALY>257.9482</MEAN_ANOMALY></meanElements><tleParameters><EPHEMERIS_TYPE>0</EPHEMERIS_TYPE><CLASSIFICATION_TYPE>U</CLASSIFICATION_TYPE><NORAD_CAT_ID>51651</NORAD_CAT_ID><ELEMENT_SET_NO>999</ELEMENT_SET_NO><REV_AT_EPOCH>18223</REV_AT_EPOCH><BSTAR>-.13908E-2</BSTAR><MEAN_MOTION_DOT>-.473E-5</MEAN_MOTION_DOT><MEAN_MOTION_DDOT>0</MEAN_MOTION_DDOT></tleParameters></data></segment></body></omm>
<omm id="CCSDS_OMM_VERS" version="2.0">
<header><CREATION_DATE/><ORIGINATOR/></header><body><segment><metadata><OBJECT_NAME>ONEWEB-0468</OBJECT_NAME><OBJECT_ID>2022-012AG</OBJECT_ID><CENTER_NAME>EARTH</CENTER_NAME><REF_FRAME>TEME</REF_FRAME><TIME_SYSTEM>UTC</TIME_SYSTEM><MEAN_ELEMENT_THEORY>SGP4</MEAN_ELEMENT_THEORY></metadata><data><meanElements><EPOCH>2025-11-22T08:09:17.714304</EPOCH><MEAN_MOTION>13.10371083</MEAN_MOTION><ECCENTRICITY>.0001815</ECCENTRICITY><INCLINATION>87.8809</INCLINATION><RA_OF_ASC_NODE>77.5145</RA_OF_ASC_NODE><ARG_OF_PERICENTER>107.6412</ARG_OF_PERICENTER><MEAN_ANOMALY>252.4914</MEAN_ANOMALY></meanElements><tleParameters><EPHEMERIS_TYPE>0</EPHEMERIS_TYPE><CLASSIFICATION_TYPE>U</CLASSIFICATION_TYPE><NORAD_CAT_ID>51652</NORAD_CAT_ID><ELEMENT_SET_NO>999</ELEMENT_SET_NO><REV_AT_EPOCH>18221</REV_AT_EPOCH><BSTAR>-.18574E-2</BSTAR><MEAN_MOTION_DOT>-.636E-5</MEAN_MOTION_DOT><MEAN_MOTION_DDOT>0</MEAN_MOTION_DDOT></tleParameters></data></segment></body></omm>
<omm id="CCSDS_OMM_VERS" version="2.0">
<header><CREATION_DATE/><ORIGINATOR/></header><body><segment><metadata><OBJECT_NAME>ONEWEB-0473</OBJECT_NAME><OBJECT_ID>2022-012AH</OBJECT_ID><CENTER_NAME>EARTH</CENTER_NAME><REF_FRAME>TEME</REF_FRAME><TIME_SYSTEM>UTC</TIME_SYSTEM><MEAN_ELEMENT_THEORY>SGP4</MEAN_ELEMENT_THEORY></metadata><data><meanElements><EPOCH>2025-11-22T07:47:48.338592</EPOCH><MEAN_MOTION>13.10369000</MEAN_MOTION><ECCENTRICITY>.0001685</ECCENTRICITY><INCLINATION>87.8803</INCLINATION><RA_OF_ASC_NODE>77.5205</RA_OF_ASC_NODE><ARG_OF_PERICENTER>107.6414</ARG_OF_PERICENTER><MEAN_ANOMALY>252.4897</MEAN_ANOMALY></meanElements><tleParameters><EPHEMERIS_TYPE>0</EPHEMERIS_TYPE><CLASSIFICATION_TYPE>U</CLASSIFICATION_TYPE><NORAD_CAT_ID>51653</NORAD_CAT_ID><ELEMENT_SET_NO>999</ELEMENT_SET_NO><REV_AT_EPOCH>18221</REV_AT_EPOCH><BSTAR>-.3066E-3</BSTAR><MEAN_MOTION_DOT>-.94E-6</MEAN_MOTION_DOT><MEAN_MOTION_DDOT>0</MEAN_MOTION_DDOT></tleParameters></data></segment></body></omm>
<omm id="CCSDS_OMM_VERS" version="2.0">
<header><CREATION_DATE/><ORIGINATOR/></header><body><segment><metadata><OBJECT_NAME>ONEWEB-0474</OBJECT_NAME><OBJECT_ID>2022-012AJ</OBJECT_ID><CENTER_NAME>EARTH</CENTER_NAME><REF_FRAME>TEME</REF_FRAME><TIME_SYSTEM>UTC</TIME_SYSTEM><MEAN_ELEMENT_THEORY>SGP4</MEAN_ELEMENT_THEORY></metadata><data><meanElements><EPOCH>2025-11-22T09:25:49.431936</EPOCH><MEAN_MOTION>13.10369060</MEAN_MOTION><ECCENTRICITY>.0001903</ECCENTRICITY><INCLINATION>87.8812</INCLINATION><RA_OF_ASC_NODE>77.4721</RA_OF_ASC_NODE><ARG_OF_PERICENTER>106.0624</ARG_OF_PERICENTER><MEAN_ANOMALY>254.0713</MEAN_ANOMALY></meanElements><tleParameters><EPHEMERIS_TYPE>0</EPHEMERIS_TYPE><CLASSIFICATION_TYPE>U</CLASSIFICATION_TYPE><NORAD_CAT_ID>51654</NORAD_CAT_ID><ELEMENT_SET_NO>999</ELEMENT_SET_NO><REV_AT_EPOCH>18221</REV_AT_EPOCH><BSTAR>.10219E-2</BSTAR><MEAN_MOTION_DOT>.369E-5</MEAN_MOTION_DOT><MEAN_MOTION_DDOT>0</MEAN_MOTION_DDOT></tleParameters></data></segment></body></omm>
<omm id="CCSDS_OMM_VERS" version="2.0">
<header><CREATION_DATE/><ORIGINATOR/></header><body><segment><metadata><OBJECT_NAME>ONEWEB-0475</OBJECT_NAME><OBJECT_ID>2022-012AK</OBJECT_ID><CENTER_NAME>EARTH</CENTER_NAME><REF_FRAME>TEME</REF_FRAME><TIME_SYSTEM>UTC</TIME_SYSTEM><MEAN_ELEMENT_THEORY>SGP4</MEAN_ELEMENT_THEORY></metadata><data><meanElements><EPOCH>2025-11-22T05:17:16.944000</EPOCH><MEAN_MOTION>13.17653704</MEAN_MOTION><ECCENTRICITY>.00023</ECCENTRICITY><INCLINATION>87.9126</INCLINATION><RA_OF_ASC_NODE>47.0347</RA_OF_ASC_NODE><ARG_OF_PERICENTER>117.1199</ARG_OF_PERICENTER><MEAN_ANOMALY>243.0167</MEAN_ANOMALY></meanElements><tleParameters><EPHEMERIS_TYPE>0</EPHEMERIS_TYPE><CLASSIFICATION_TYPE>U</CLASSIFICATION_TYPE><NORAD_CAT_ID>51655</NORAD_CAT_ID><ELEMENT_SET_NO>999</ELEMENT_SET_NO><REV_AT_EPOCH>18643</REV_AT_EPOCH><BSTAR>.2083E-3</BSTAR><MEAN_MOTION_DOT>.94E-6</MEAN_MOTION_DOT><MEAN_MOTION_DDOT>0</MEAN_MOTION_DDOT></tleParameters></data></segment></body></omm>
<omm id="CCSDS_OMM_VERS" version="2.0">
<header><CREATION_DATE/><ORIGINATOR/></header><body><segment><metadata><OBJECT_NAME>ONEWEB-0490</OBJECT_NAME><OBJECT_ID>2022-138A</OBJECT_ID><CENTER_NAME>EARTH</CENTER_NAME><REF_FRAME>TEME</REF_FRAME><TIME_SYSTEM>UTC</TIME_SYSTEM><MEAN_ELEMENT_THEORY>SGP4</MEAN_ELEMENT_THEORY></metadata><data><meanElements><EPOCH>2025-11-22T01:53:37.597632</EPOCH><MEAN_MOTION>13.19725450</MEAN_MOTION><ECCENTRICITY>.0002075</ECCENTRICITY><INCLINATION>87.9216</INCLINATION><RA_OF_ASC_NODE>346.1654</RA_OF_ASC_NODE><ARG_OF_PERICENTER>93.7196</ARG_OF_PERICENTER><MEAN_ANOMALY>266.4174</MEAN_ANOMALY></meanElements><tleParameters><EPHEMERIS_TYPE>0</EPHEMERIS_TYPE><CLASSIFICATION_TYPE>U</CLASSIFICATION_TYPE><NORAD_CAT_ID>54113</NORAD_CAT_ID><ELEMENT_SET_NO>999</ELEMENT_SET_NO><REV_AT_EPOCH>14951</REV_AT_EPOCH><BSTAR>-.44822E-3</BSTAR><MEAN_MOTION_DOT>-.166E-5</MEAN_MOTION_DOT><MEAN_MOTION_DDOT>0</MEAN_MOTION_DDOT></tleParameters></data></segment></body></omm>

</ndm>
