ONEWEB-0461             
1 51649U 22012AD  25326.30302213  .00000048  00000+0  90844-4 0  9994
2 51649  87.9141  46.9832 0001668  98.9347 261.1973 13.17647338186647
ONEWEB-0463             
1 51650U 22012AE  25326.20851231  .00000027  00000+0  36351-4 0  9994
2 51650  87.9113  47.0493 0001802 104.0498 256.0834 13.17647386186416
ONEWEB-0464             
1 51651U 22012AF  25326.33315397 -.00000473  00000+0 -13908-2 0  9995
2 51651  87.8807  77.5231 0001905 102.1859 257.9482 13.10370140182237
ONEWEB-0468             
1 51652U 22012AG  25326.33978836 -.00000636  00000+0 -18574-2 0  9994
2 51652  87.8809  77.5145 0001815 107.6412 252.4914 13.10371083182214
ONEWEB-0473             
1 51653U 22012AH  25326.32486503 -.00000094  00000+0 -30660-3 0  9998
2 51653  87.8803  77.5205 0001685 107.6414 252.4897 13.10369000182219
ONEWEB-0474             
1 51654U 22012AJ  25326.39293324  .00000369  00000+0  10219-2 0  9993
2 51654  87.8812  77.4721 0001903 106.0624 254.0713 13.10369060182212
ONEWEB-0475             
1 51655U 22012AK  25326.22033500  .00000094  00000+0  20830-3 0  9990
2 51655  87.9126  47.0347 0002300 117.1199 243.0167 13.17653704186438
ONEWEB-0490             
1 54113U 22138A   25326.07890738 -.00000166  00000+0 -44822-3 0  9997
2 54113  87.9216 346.1654 0002075  93.7196 266.4174 13.19725450149514
